NORAD_CAT_ID,OBJECT_NAME,OBJECT_TYPE,EPOCH,MEAN_MOTION,ECCENTRICITY,INCLINATION,RA_OF_ASC_NODE,ARG_OF_PERICENTER,MEAN_ANOMALY,BSTAR,MEAN_MOTION_DOT,MEAN_MOTION_DDOT,TLE_LINE0,TLE_LINE1,TLE_LINE2,SEMIMAJOR_AXIS,PERIOD,APOGEE,PERIGEE,DECAYED
53566.0,STARLINK-4576,PAYLOAD,2024-06-26 03:32:45,15.08848531,0.0001273,53.2187,324.3192,90.5281,269.5857,0.00010103,1.321e-05,0.0,0 STARLINK-4576,1 53566U 22101AR  24178.14774779  .00001321  00000-0  10103-3 0  9994,2 53566  53.2187 324.3192 0001273  90.5281 269.5857 15.08848531103307,6917.854,95.437,540.6,538.839,0.0
53566.0,STARLINK-4576,PAYLOAD,2024-06-27 12:55:51,15.08839316,0.0001406,53.22,318.0714,115.1378,244.976,2.0231e-05,3.4e-07,0.0,0 STARLINK-4576,1 53566U 22101AR  24179.53879520  .00000034  00000-0  20231-4 0  9992,2 53566  53.2200 318.0714 0001406 115.1378 244.9760 15.08839316102829,6917.882,95.438,540.72,538.775,0.0
53566.0,STARLINK-4576,PAYLOAD,2024-06-27 16:06:38,15.08838282,0.0001261,53.2191,317.4803,87.5507,272.5629,-2.5202e-05,-6.89e-06,0.0,0 STARLINK-4576,1 53566U 22101AR  24179.67127780 -.00000689  00000-0 -25202-4 0  9992,2 53566  53.2191 317.4803 0001261  87.5507 272.5629 15.08838282103536,6917.886,95.438,540.623,538.878,0.0
53566.0,STARLINK-4576,PAYLOAD,2024-06-28 14:22:02,15.0883779,0.0001127,53.217,313.3159,82.6257,277.4863,8.9496e-05,1.137e-05,0.0,0 STARLINK-4576,1 53566U 22101AR  24180.59863673  .00001137  00000-0  89496-4 0  9995,2 53566  53.2170 313.3159 0001127  82.6257 277.4863 15.08837790103673,6917.887,95.438,540.532,538.972,0.0
53566.0,STARLINK-4576,PAYLOAD,2024-06-28 15:57:24,15.08854413,0.0001136,53.2174,313.0212,76.0281,284.0837,-8.1454e-05,-1.584e-05,0.0,0 STARLINK-4576,1 53566U 22101AR  24180.66486788 -.00001584  00000-0 -81454-4 0  9995,2 53566  53.2174 313.0212 0001136  76.0281 284.0837 15.08854413102998,6917.836,95.437,540.487,538.915,0.0
53566.0,STARLINK-4576,PAYLOAD,2024-06-29 01:29:41,15.08869284,4.68e-05,53.2174,311.2339,28.9494,331.1524,0.00037523,5.694e-05,0.0,0 STARLINK-4576,1 53566U 22101AR  24181.06228384  .00005694  00000-0  37523-3 0  9997,2 53566  53.2174 311.2339 0000468  28.9494 331.1524 15.08869284103054,6917.791,95.436,539.98,539.332,0.0
53566.0,STARLINK-4576,PAYLOAD,2024-06-29 12:37:27,15.0881553,0.0001154,53.2177,309.1566,84.4146,275.6977,-6.669e-05,-1.348e-05,0.0,0 STARLINK-4576,1 53566U 22101AR  24181.52601717 -.00001348  00000-0 -66690-4 0  9995,2 53566  53.2177 309.1566 0001154  84.4146 275.6977 15.08815530103126,6917.955,95.439,540.619,539.022,0.0
53566.0,STARLINK-4576,PAYLOAD,2024-06-29 14:12:50,15.08817562,0.0001229,53.217,308.8594,82.8506,277.2626,-0.00020606,-3.564e-05,0.0,0 STARLINK-4576,1 53566U 22101AR  24181.59224806 -.00003564  00000-0 -20606-3 0  9990,2 53566  53.2170 308.8594 0001229  82.8506 277.2626 15.08817562103824,6917.949,95.439,540.664,538.964,0.0
53566.0,STARLINK-4576,PAYLOAD,2024-06-29 17:23:36,15.0882768,0.0001171,53.2166,308.2606,60.8831,299.2278,-5.4545e-05,-1.155e-05,0.0,0 STARLINK-4576,1 53566U 22101AR  24181.72472494 -.00001155  00000-0 -54545-4 0  9997,2 53566  53.2166 308.2606 0001171  60.8831 299.2278 15.08827680103155,6917.918,95.438,540.593,538.973,0.0
53566.0,STARLINK-4576,PAYLOAD,2024-06-30 01:20:31,15.08837939,0.0001203,53.2168,306.7724,60.7516,299.3596,7.9397e-05,9.76e-06,0.0,0 STARLINK-4576,1 53566U 22101AR  24182.05592045  .00000976  00000-0  79397-4 0  9999,2 53566  53.2168 306.7724 0001203  60.7516 299.3596 15.08837939103204,6917.887,95.438,540.584,538.919,0.0
53566.0,STARLINK-4576,PAYLOAD,2024-06-30 14:03:37,15.08832755,0.0001408,53.2172,304.399,80.0017,280.1134,-7.4217e-05,-1.469e-05,0.0,0 STARLINK-4576,1 53566U 22101AR  24182.58584712 -.00001469  00000-0 -74217-4 0  9995,2 53566  53.2172 304.3990 0001408  80.0017 280.1134 15.08832755103977,6917.903,95.438,540.742,538.793,0.0
53566.0,STARLINK-4576,PAYLOAD,2024-06-30 15:38:59,15.08847268,9.8e-05,53.216,304.0969,79.8069,280.3034,8.8043e-05,1.114e-05,0.0,0 STARLINK-4576,1 53566U 22101AR  24182.65207822  .00001114  00000-0  88043-4 0  9994,2 53566  53.2160 304.0969 0000980  79.8069 280.3034 15.08847268103981,6917.858,95.437,540.401,539.045,0.0
53566.0,STARLINK-4576,PAYLOAD,2024-07-01 12:19:01,15.0882823,0.000139,53.2164,300.2362,75.3216,284.793,0.00020815,3.025e-05,0.0,0 STARLINK-4576,1 53566U 22101AR  24183.51321133  .00003025  00000-0  20815-3 0  9997,2 53566  53.2164 300.2362 0001390  75.3216 284.7930 15.08828230103421,6917.916,95.438,540.743,538.82,0.0
53566.0,STARLINK-4576,PAYLOAD,2024-07-01 13:54:24,15.08824099,8.09e-05,53.2157,299.9357,70.6781,289.4298,0.00021337,3.108e-05,0.0,0 STARLINK-4576,1 53566U 22101AR  24183.57945222  .00003108  00000-0  21337-3 0  9996,2 53566  53.2157 299.9357 0000809  70.6781 289.4298 15.08824099104126,6917.929,95.439,540.354,539.234,0.0
53566.0,STARLINK-4576,PAYLOAD,2024-07-01 15:29:47,15.08840914,0.000116,53.2165,299.6371,69.6603,290.4514,0.00024948,3.685e-05,0.0,0 STARLINK-4576,1 53566U 22101AR  24183.64568511  .00003685  00000-0  24948-3 0  9997,2 53566  53.2165 299.6371 0001160  69.6603 290.4514 15.08840914103441,6917.878,95.437,540.545,538.94,0.0
53566.0,STARLINK-4576,PAYLOAD,2024-07-02 13:45:11,15.08832143,0.00013,53.2148,295.4756,83.5487,276.5653,1.9835e-05,2.8e-07,0.0,0 STARLINK-4576,1 53566U 22101AR  24184.57305133  .00000028  00000-0  19835-4 0  9997,2 53566  53.2148 295.4756 0001300  83.5487 276.5653 15.08832143103583,6917.904,95.438,540.669,538.87,0.0
53566.0,STARLINK-4576,PAYLOAD,2024-07-03 13:35:58,15.08839769,0.0001155,53.2168,291.0164,86.4755,273.637,0.0001881,2.707e-05,0.0,0 STARLINK-4576,1 53566U 22101AR  24185.56664955  .00002707  00000-0  18810-3 0  9994,2 53566  53.2168 291.0164 0001155  86.4755 273.6370 15.08839769103730,6917.881,95.438,540.545,538.947,0.0
53566.0,STARLINK-4576,PAYLOAD,2024-07-04 13:26:45,15.08836573,0.0001147,53.2176,286.5534,99.7307,260.3814,0.0002295,3.366e-05,0.0,0 STARLINK-4576,1 53566U 22101AR  24186.56025118  .00003366  00000-0  22950-3 0  9999,2 53566  53.2176 286.5534 0001147  99.7307 260.3814 15.08836573104579,6917.891,95.438,540.549,538.962,0.0
53566.0,STARLINK-4576,PAYLOAD,2024-07-05 13:17:32,15.08845141,0.0001082,53.2171,282.0982,87.1139,272.9977,0.00013295,1.829e-05,0.0,0 STARLINK-4576,1 53566U 22101AR  24187.55384826  .00001829  00000-0  13295-3 0  9997,2 53566  53.2171 282.0982 0001082  87.1139 272.9977 15.08845141104721,6917.865,95.437,540.478,538.981,0.0
53566.0,STARLINK-4576,PAYLOAD,2024-07-06 05:11:24,15.08832802,0.0002057,53.217,279.1199,81.5866,278.5359,-3.3387e-05,-8.19e-06,0.0,0 STARLINK-4576,1 53566U 22101AR  24188.21625161 -.00000819  00000-0 -33387-4 0  9996,2 53566  53.2170 279.1199 0002057  81.5866 278.5359 15.08832802104136,6917.902,95.438,541.19,538.344,0.0
53566.0,STARLINK-4576,PAYLOAD,2024-07-06 13:08:19,15.0882838,0.0001371,53.2178,277.6367,95.0353,265.0796,-9.3579e-05,-1.776e-05,0.0,0 STARLINK-4576,1 53566U 22101AR  24188.54745322 -.00001776  00000-0 -93579-4 0  9996,2 53566  53.2178 277.6367 0001371  95.0353 265.0796 15.08828380104876,6917.916,95.438,540.729,538.832,0.0
53566.0,STARLINK-4576,PAYLOAD,2024-07-06 14:43:43,15.08829842,0.0001395,53.2181,277.3391,93.4856,266.6296,-7.4029e-05,-1.466e-05,0.0,0 STARLINK-4576,1 53566U 22101AR  24188.61369292 -.00001466  00000-0 -74029-4 0  9997,2 53566  53.2181 277.3391 0001395  93.4856 266.6296 15.08829842104887,6917.911,95.438,540.741,538.811,0.0
53566.0,STARLINK-4576,PAYLOAD,2024-07-07 09:48:20,15.08833698,0.0001433,53.2178,273.7713,95.4358,264.6798,-3.0801e-06,-3.37e-06,0.0,0 STARLINK-4576,1 53566U 22101AR  24189.40857358 -.00000337  00000-0 -30801-5 0  9997,2 53566  53.2178 273.7713 0001433  95.4358 264.6798 15.08833698104310,6917.9,95.438,540.756,538.773,0.0
53566.0,STARLINK-4576,PAYLOAD,2024-07-08 04:52:58,15.08844568,0.0001495,53.218,270.2034,98.2959,261.8203,0.00035575,5.379e-05,0.0,0 STARLINK-4576,1 53566U 22101AR  24190.20345099  .00005379  00000-0  35575-3 0  9991,2 53566  53.2180 270.2034 0001495  98.2959 261.8203 15.08844568104438,6917.866,95.437,540.766,538.697,0.0
53566.0,STARLINK-4576,PAYLOAD,2024-07-08 12:49:53,15.08845958,0.0001418,53.217,268.7166,96.9771,263.1382,0.00030176,4.519e-05,0.0,0 STARLINK-4576,1 53566U 22101AR  24190.53465077  .00004519  00000-0  30176-3 0  9993,2 53566  53.2170 268.7166 0001418  96.9771 263.1382 15.08845958105176,6917.862,95.437,540.708,538.746,0.0
53566.0,STARLINK-4576,PAYLOAD,2024-07-08 22:22:12,15.088505,0.000156,53.2174,266.9309,82.0593,278.0577,0.00027667,4.119e-05,0.0,0 STARLINK-4576,1 53566U 22101AR  24190.93208854  .00004119  00000-0  27667-3 0  9992,2 53566  53.2174 266.9309 0001560  82.0593 278.0577 15.08850500105232,6917.848,95.437,540.792,538.634,0.0
53566.0,STARLINK-4576,PAYLOAD,2024-07-09 11:05:17,15.08838315,0.0001242,53.2163,264.5526,89.6966,270.4168,2.6587e-05,1.35e-06,0.0,0 STARLINK-4576,1 53566U 22101AR  24191.46201149  .00000135  00000-0  26587-4 0  9996,2 53566  53.2163 264.5526 0001242  89.6966 270.4168 15.08838315104623,6917.886,95.438,540.61,538.891,0.0
53566.0,STARLINK-4576,PAYLOAD,2024-07-10 10:56:04,15.08842424,0.000122,53.214,260.0889,92.1063,268.0069,0.00010943,1.454e-05,0.0,0 STARLINK-4576,1 53566U 22101AR  24192.45560987  .00001454  00000-0  10943-3 0  9997,2 53566  53.2140 260.0889 0001220  92.1063 268.0069 15.08842424105466,6917.873,95.437,540.582,538.894,0.0
53566.0,STARLINK-4576,PAYLOAD,2024-07-11 10:46:51,15.08843091,0.0001453,53.2163,255.6291,97.7704,262.3453,0.00014655,2.045e-05,0.0,0 STARLINK-4576,1 53566U 22101AR  24193.44921104  .00002045  00000-0  14655-3 0  9990,2 53566  53.2163 255.6291 0001453  97.7704 262.3453 15.08843091105611,6917.871,95.437,540.741,538.731,0.0
53566.0,STARLINK-4576,PAYLOAD,2024-07-12 10:37:39,15.08835745,0.0001331,53.2156,251.1694,92.6213,267.4932,5.2043e-05,5.4e-06,0.0,0 STARLINK-4576,1 53566U 22101AR  24194.44281576  .00000540  00000-0  52043-4 0  9995,2 53566  53.2156 251.1694 0001331  92.6213 267.4932 15.08835745105070,6917.893,95.438,540.679,538.838,0.0
